IDEFIX & ARIANE 42P R/B 
1 27422U 02021B   26045.28229479  .00000317  00000+0  13697-3 0  9991
2 27422  98.5846 344.1718 0010616 256.1262 103.8740 14.31009175240678
AQUA                    
1 27424U 02022A   26045.28570463  .00001157  00000+0  24106-3 0  9996
2 27424  98.4130  12.2325 0001320  49.4298  56.1828 14.61918197265317
CZ-4B R/B               
1 27432U 02024C   26045.16569542  .00000036  00000+0  41240-4 0  9994
2 27432  98.8894  98.6848 0051211  90.0252 336.0793 14.14543310225913
MIDORI II (ADEOS-II)    
1 27597U 02056A   26045.28195157  .00000369  00000+0  16296-3 0  9992
2 27597  98.7726   3.6043 0002195  75.1723 284.9702 14.29267625206957
H-2A R/B                
1 27601U 02056E   26044.91065957  .00000305  00000+0  12167-3 0  9994
2 27601  98.3157   6.1878 0069180 231.9217 193.4142 14.33743895210701
CZ-4B R/B               
1 28059U 03049C   26045.00231053  .00000501  00000+0  12660-3 0  9994
2 28059  98.6852  38.9828 0047213 304.9038  54.7725 14.54994430183157
CZ-2C R/B               
1 28222U 04012C   26045.11392545  .00048026  00000+0  55140-3 0  9997
2 28222  97.7298 108.2196 0015354  41.2179 319.0234 15.61778218200593
SL-16 R/B               
1 28353U 04021B   26045.05116375  .00000315  00000+0  18881-3 0  9990
2 28353  70.9990 282.1016 0003151  67.7817 292.3640 14.14592715119492
CZ-4B R/B               
1 28415U 04035C   26045.08490134  .00008309  00000+0  29610-3 0  9998
2 28415  97.3541  79.6147 0033754  54.6665 305.7722 15.28622474176303
CZ-2C R/B               
1 28480U 04046B   26045.27614899  .00000129  00000+0  63530-4 0  9991
2 28480  98.1995 321.7148 0138461 223.7886 135.2251 14.26983938105165
ARIANE 5 R/B            
1 28499U 04049H   26045.05337428  .00000980  00000+0  11403-3 0  9996
2 28499  98.2587 212.6323 0085379  68.0644 292.9617 14.85218514142284
CZ-2D R/B               
1 28738U 05024B   26045.02497100  .00038598  00000+0  51376-3 0  9996
2 28738  97.3614  59.3434 0007645 103.3087 256.9022 15.58035001136095
