CCSDS_OMM_VERS = 2.0
CREATION_DATE  = 
ORIGINATOR     = 

OBJECT_NAME    = IDEFIX & ARIANE 42P R/B
OBJECT_ID      = 2002-021B
CENTER_NAME    = EARTH
REF_FRAME      = TEME
TIME_SYSTEM    = UTC
MEAN_ELEMENT_THEORY = SGP/SGP4

EPOCH          = 2026-02-14T06:46:30.269856
MEAN_MOTION    = 14.31009175
ECCENTRICITY   = .00106164
INCLINATION    = 98.5846
RA_OF_ASC_NODE = 344.1718
ARG_OF_PERICENTER = 256.1262
MEAN_ANOMALY   = 103.8740

EPHEMERIS_TYPE = 0
CLASSIFICATION_TYPE = U
NORAD_CAT_ID   = 27422
ELEMENT_SET_NO = 999
REV_AT_EPOCH   = 24067
BSTAR          = .13697245E-3
MEAN_MOTION_DOT = .317E-5
MEAN_MOTION_DDOT = 0

CCSDS_OMM_VERS = 2.0
CREATION_DATE  = 
ORIGINATOR     = 

OBJECT_NAME    = AQUA
OBJECT_ID      = 2002-022A
CENTER_NAME    = EARTH
REF_FRAME      = TEME
TIME_SYSTEM    = UTC
MEAN_ELEMENT_THEORY = SGP/SGP4

EPOCH          = 2026-02-14T06:51:24.880032
MEAN_MOTION    = 14.61918197
ECCENTRICITY   = .00013204
INCLINATION    = 98.4130
RA_OF_ASC_NODE = 12.2325
ARG_OF_PERICENTER = 49.4298
MEAN_ANOMALY   = 56.1828

EPHEMERIS_TYPE = 0
CLASSIFICATION_TYPE = U
NORAD_CAT_ID   = 27424
ELEMENT_SET_NO = 999
REV_AT_EPOCH   = 26531
BSTAR          = .24105522E-3
MEAN_MOTION_DOT = .1157E-4
MEAN_MOTION_DDOT = 0

CCSDS_OMM_VERS = 2.0
CREATION_DATE  = 
ORIGINATOR     = 

OBJECT_NAME    = CZ-4B R/B
OBJECT_ID      = 2002-024C
CENTER_NAME    = EARTH
REF_FRAME      = TEME
TIME_SYSTEM    = UTC
MEAN_ELEMENT_THEORY = SGP/SGP4

EPOCH          = 2026-02-14T03:58:36.084288
MEAN_MOTION    = 14.14543310
ECCENTRICITY   = .00512119
INCLINATION    = 98.8894
RA_OF_ASC_NODE = 98.6848
ARG_OF_PERICENTER = 90.0252
MEAN_ANOMALY   = 336.0793

EPHEMERIS_TYPE = 0
CLASSIFICATION_TYPE = U
NORAD_CAT_ID   = 27432
ELEMENT_SET_NO = 999
REV_AT_EPOCH   = 22591
BSTAR          = .41239723E-4
MEAN_MOTION_DOT = .36E-6
MEAN_MOTION_DDOT = 0

CCSDS_OMM_VERS = 2.0
CREATION_DATE  = 
ORIGINATOR     = 

OBJECT_NAME    = MIDORI II (ADEOS-II)
OBJECT_ID      = 2002-056A
CENTER_NAME    = EARTH
REF_FRAME      = TEME
TIME_SYSTEM    = UTC
MEAN_ELEMENT_THEORY = SGP/SGP4

EPOCH          = 2026-02-14T06:46:00.615648
MEAN_MOTION    = 14.29267625
ECCENTRICITY   = .00021954
INCLINATION    = 98.7726
RA_OF_ASC_NODE = 3.6043
ARG_OF_PERICENTER = 75.1723
MEAN_ANOMALY   = 284.9702

EPHEMERIS_TYPE = 0
CLASSIFICATION_TYPE = U
NORAD_CAT_ID   = 27597
ELEMENT_SET_NO = 999
REV_AT_EPOCH   = 20695
BSTAR          = .16295786E-3
MEAN_MOTION_DOT = .369E-5
MEAN_MOTION_DDOT = 0

CCSDS_OMM_VERS = 2.0
CREATION_DATE  = 
ORIGINATOR     = 

OBJECT_NAME    = H-2A R/B
OBJECT_ID      = 2002-056E
CENTER_NAME    = EARTH
REF_FRAME      = TEME
TIME_SYSTEM    = UTC
MEAN_ELEMENT_THEORY = SGP/SGP4

EPOCH          = 2026-02-13T21:51:20.986848
MEAN_MOTION    = 14.33743895
ECCENTRICITY   = .00691808
INCLINATION    = 98.3157
RA_OF_ASC_NODE = 6.1878
ARG_OF_PERICENTER = 231.9217
MEAN_ANOMALY   = 193.4142

EPHEMERIS_TYPE = 0
CLASSIFICATION_TYPE = U
NORAD_CAT_ID   = 27601
ELEMENT_SET_NO = 999
REV_AT_EPOCH   = 21070
BSTAR          = .12166626E-3
MEAN_MOTION_DOT = .305E-5
MEAN_MOTION_DDOT = 0

CCSDS_OMM_VERS = 2.0
CREATION_DATE  = 
ORIGINATOR     = 

OBJECT_NAME    = CZ-4B R/B
OBJECT_ID      = 2003-049C
CENTER_NAME    = EARTH
REF_FRAME      = TEME
TIME_SYSTEM    = UTC
MEAN_ELEMENT_THEORY = SGP/SGP4

EPOCH          = 2026-02-14T00:03:19.629792
MEAN_MOTION    = 14.54994430
ECCENTRICITY   = .00472136
INCLINATION    = 98.6852
RA_OF_ASC_NODE = 38.9828
ARG_OF_PERICENTER = 304.9038
MEAN_ANOMALY   = 54.7725

EPHEMERIS_TYPE = 0
CLASSIFICATION_TYPE = U
NORAD_CAT_ID   = 28059
ELEMENT_SET_NO = 999
REV_AT_EPOCH   = 18315
BSTAR          = .12659905E-3
MEAN_MOTION_DOT = .501E-5
MEAN_MOTION_DDOT = 0

CCSDS_OMM_VERS = 2.0
CREATION_DATE  = 
ORIGINATOR     = 

OBJECT_NAME    = CZ-2C R/B
OBJECT_ID      = 2004-012C
CENTER_NAME    = EARTH
REF_FRAME      = TEME
TIME_SYSTEM    = UTC
MEAN_ELEMENT_THEORY = SGP/SGP4

EPOCH          = 2026-02-14T02:44:03.158880
MEAN_MOTION    = 15.61778218
ECCENTRICITY   = .00153548
INCLINATION    = 97.7298
RA_OF_ASC_NODE = 108.2196
ARG_OF_PERICENTER = 41.2179
MEAN_ANOMALY   = 319.0234

EPHEMERIS_TYPE = 0
CLASSIFICATION_TYPE = U
NORAD_CAT_ID   = 28222
ELEMENT_SET_NO = 999
REV_AT_EPOCH   = 20059
BSTAR          = .55139592E-3
MEAN_MOTION_DOT = .48026E-3
MEAN_MOTION_DDOT = 0

CCSDS_OMM_VERS = 2.0
CREATION_DATE  = 
ORIGINATOR     = 

OBJECT_NAME    = SL-16 R/B
OBJECT_ID      = 2004-021B
CENTER_NAME    = EARTH
REF_FRAME      = TEME
TIME_SYSTEM    = UTC
MEAN_ELEMENT_THEORY = SGP/SGP4

EPOCH          = 2026-02-14T01:13:40.548000
MEAN_MOTION    = 14.14592715
ECCENTRICITY   = .00031511
INCLINATION    = 70.9990
RA_OF_ASC_NODE = 282.1016
ARG_OF_PERICENTER = 67.7817
MEAN_ANOMALY   = 292.3640

EPHEMERIS_TYPE = 0
CLASSIFICATION_TYPE = U
NORAD_CAT_ID   = 28353
ELEMENT_SET_NO = 999
REV_AT_EPOCH   = 11949
BSTAR          = .18881102E-3
MEAN_MOTION_DOT = .315E-5
MEAN_MOTION_DDOT = 0

CCSDS_OMM_VERS = 2.0
CREATION_DATE  = 
ORIGINATOR     = 

OBJECT_NAME    = CZ-4B R/B
OBJECT_ID      = 2004-035C
CENTER_NAME    = EARTH
REF_FRAME      = TEME
TIME_SYSTEM    = UTC
MEAN_ELEMENT_THEORY = SGP/SGP4

EPOCH          = 2026-02-14T02:02:15.475776
MEAN_MOTION    = 15.28622474
ECCENTRICITY   = .00337542
INCLINATION    = 97.3541
RA_OF_ASC_NODE = 79.6147
ARG_OF_PERICENTER = 54.6665
MEAN_ANOMALY   = 305.7722

EPHEMERIS_TYPE = 0
CLASSIFICATION_TYPE = U
NORAD_CAT_ID   = 28415
ELEMENT_SET_NO = 999
REV_AT_EPOCH   = 17630
BSTAR          = .29609753E-3
MEAN_MOTION_DOT = .8309E-4
MEAN_MOTION_DDOT = 0

CCSDS_OMM_VERS = 2.0
CREATION_DATE  = 
ORIGINATOR     = 

OBJECT_NAME    = CZ-2C R/B
OBJECT_ID      = 2004-046B
CENTER_NAME    = EARTH
REF_FRAME      = TEME
TIME_SYSTEM    = UTC
MEAN_ELEMENT_THEORY = SGP/SGP4

EPOCH          = 2026-02-14T06:37:39.272736
MEAN_MOTION    = 14.26983938
ECCENTRICITY   = .01384612
INCLINATION    = 98.1995
RA_OF_ASC_NODE = 321.7148
ARG_OF_PERICENTER = 223.7886
MEAN_ANOMALY   = 135.2251

EPHEMERIS_TYPE = 0
CLASSIFICATION_TYPE = U
NORAD_CAT_ID   = 28480
ELEMENT_SET_NO = 999
REV_AT_EPOCH   = 10516
BSTAR          = .63530042E-4
MEAN_MOTION_DOT = .129E-5
MEAN_MOTION_DDOT = 0

CCSDS_OMM_VERS = 2.0
CREATION_DATE  = 
ORIGINATOR     = 

OBJECT_NAME    = ARIANE 5 R/B
OBJECT_ID      = 2004-049H
CENTER_NAME    = EARTH
REF_FRAME      = TEME
TIME_SYSTEM    = UTC
MEAN_ELEMENT_THEORY = SGP/SGP4

EPOCH          = 2026-02-14T01:16:51.537792
MEAN_MOTION    = 14.85218514
ECCENTRICITY   = .00853791
INCLINATION    = 98.2587
RA_OF_ASC_NODE = 212.6323
ARG_OF_PERICENTER = 68.0644
MEAN_ANOMALY   = 292.9617

EPHEMERIS_TYPE = 0
CLASSIFICATION_TYPE = U
NORAD_CAT_ID   = 28499
ELEMENT_SET_NO = 999
REV_AT_EPOCH   = 14228
BSTAR          = .11403114E-3
MEAN_MOTION_DOT = .98E-5
MEAN_MOTION_DDOT = 0

CCSDS_OMM_VERS = 2.0
CREATION_DATE  = 
ORIGINATOR     = 

OBJECT_NAME    = CZ-2D R/B
OBJECT_ID      = 2005-024B
CENTER_NAME    = EARTH
REF_FRAME      = TEME
TIME_SYSTEM    = UTC
MEAN_ELEMENT_THEORY = SGP/SGP4

EPOCH          = 2026-02-14T00:35:57.494400
MEAN_MOTION    = 15.58035001
ECCENTRICITY   = .00076455
INCLINATION    = 97.3614
RA_OF_ASC_NODE = 59.3434
ARG_OF_PERICENTER = 103.3087
MEAN_ANOMALY   = 256.9022

EPHEMERIS_TYPE = 0
CLASSIFICATION_TYPE = U
NORAD_CAT_ID   = 28738
ELEMENT_SET_NO = 999
REV_AT_EPOCH   = 13609
BSTAR          = .51375816E-3
MEAN_MOTION_DOT = .38598E-3
MEAN_MOTION_DDOT = 0

